{
  "type": "FeatureCollection",
  "features": [
    {
      "type": "Feature",
      "properties": {
        "norad_id": 37320,
        "name": "COSMOS 2251 DEB",
        "group": "cosmos-2251-debris",
        "lat": -23.170545426665917,
        "lon": -139.8700056486789,
        "alt_km": 607.7468124567849,
        "timestamp": "2025-12-08T03:50:07.393687+00:00",
        "meta_object_name": "COSMOS 2251 DEB",
        "meta_object_id": "1993-036BKL",
        "meta_epoch": "2025-12-05T01:15:03.541248",
        "meta_mean_motion": 14.78626026,
        "meta_eccentricity": 0.00469911,
        "meta_inclination": 74.0466,
        "meta_ra_of_asc_node": 233.2644,
        "meta_arg_of_pericenter": 321.7897,
        "meta_mean_anomaly": 37.995,
        "meta_ephemeris_type": 0,
        "meta_classification_type": "U",
        "meta_norad_cat_id": 37320,
        "meta_element_set_no": 999,
        "meta_rev_at_epoch": 66033,
        "meta_bstar": 0.0020531789,
        "meta_mean_motion_dot": 0.00015318,
        "meta_mean_motion_ddot": 0,
        "tle_line1": "1 37320U 93036BKL 25339.05212432  .00015318  00000+0  20532-2 0  9998",
        "tle_line2": "2 37320  74.0466 233.2644 0046991 321.7897  37.9950 14.78626026660337"
      },
      "geometry": {
        "type": "Point",
        "coordinates": [
          -139.8700056486789,
          -23.170545426665917
        ]
      }
    },
    {
      "type": "Feature",
      "properties": {
        "norad_id": 37326,
        "name": "COSMOS 2251 DEB",
        "group": "cosmos-2251-debris",
        "lat": 68.45339231655461,
        "lon": 116.9531508257821,
        "alt_km": 642.9005348646378,
        "timestamp": "2025-12-08T03:50:07.393697+00:00",
        "meta_object_name": "COSMOS 2251 DEB",
        "meta_object_id": "1993-036BKS",
        "meta_epoch": "2025-12-06T18:30:18.083232",
        "meta_mean_motion": 14.61532521,
        "meta_eccentricity": 0.00548849,
        "meta_inclination": 74.0254,
        "meta_ra_of_asc_node": 346.119,
        "meta_arg_of_pericenter": 116.9212,
        "meta_mean_anomaly": 243.7578,
        "meta_ephemeris_type": 0,
        "meta_classification_type": "U",
        "meta_norad_cat_id": 37326,
        "meta_element_set_no": 999,
        "meta_rev_at_epoch": 85396,
        "meta_bstar": 0.00089010562,
        "meta_mean_motion_dot": 4.485e-05,
        "meta_mean_motion_ddot": 0,
        "tle_line1": "1 37326U 93036BKS 25340.77104263  .00004485  00000+0  89011-3 0  9998",
        "tle_line2": "2 37326  74.0254 346.1190 0054884 116.9212 243.7578 14.61532521853967"
      },
      "geometry": {
        "type": "Point",
        "coordinates": [
          116.9531508257821,
          68.45339231655461
        ]
      }
    },
    {
      "type": "Feature",
      "properties": {
        "norad_id": 37330,
        "name": "COSMOS 2251 DEB",
        "group": "cosmos-2251-debris",
        "lat": 43.15834062591909,
        "lon": 108.24258298196152,
        "alt_km": 652.4864297439344,
        "timestamp": "2025-12-08T03:50:07.393707+00:00",
        "meta_object_name": "COSMOS 2251 DEB",
        "meta_object_id": "1993-036BKW",
        "meta_epoch": "2025-12-05T14:21:14.190624",
        "meta_mean_motion": 14.59506659,
        "meta_eccentricity": 0.00573025,
        "meta_inclination": 74.0171,
        "meta_ra_of_asc_node": 308.721,
        "meta_arg_of_pericenter": 159.2705,
        "meta_mean_anomaly": 201.0804,
        "meta_ephemeris_type": 0,
        "meta_classification_type": "U",
        "meta_norad_cat_id": 37330,
        "meta_element_set_no": 999,
        "meta_rev_at_epoch": 86264,
        "meta_bstar": 0.00055225594,
        "meta_mean_motion_dot": 2.653e-05,
        "meta_mean_motion_ddot": 0,
        "tle_line1": "1 37330U 93036BKW 25339.59808091  .00002653  00000+0  55226-3 0  9997",
        "tle_line2": "2 37330  74.0171 308.7210 0057302 159.2705 201.0804 14.59506659862646"
      },
      "geometry": {
        "type": "Point",
        "coordinates": [
          108.24258298196152,
          43.15834062591909
        ]
      }
    },
    {
      "type": "Feature",
      "properties": {
        "norad_id": 37331,
        "name": "COSMOS 2251 DEB",
        "group": "cosmos-2251-debris",
        "lat": -55.77069090029509,
        "lon": 51.43619322083637,
        "alt_km": 816.6762854115368,
        "timestamp": "2025-12-08T03:50:07.393717+00:00",
        "meta_object_name": "COSMOS 2251 DEB",
        "meta_object_id": "1993-036BKX",
        "meta_epoch": "2025-12-01T01:26:56.105376",
        "meta_mean_motion": 14.34963315,
        "meta_eccentricity": 0.0055446,
        "meta_inclination": 74.0748,
        "meta_ra_of_asc_node": 89.2257,
        "meta_arg_of_pericenter": 107.2854,
        "meta_mean_anomaly": 253.4376,
        "meta_ephemeris_type": 0,
        "meta_classification_type": "U",
        "meta_norad_cat_id": 37331,
        "meta_element_set_no": 999,
        "meta_rev_at_epoch": 84592,
        "meta_bstar": 0.00070853607,
        "meta_mean_motion_dot": 2.027e-05,
        "meta_mean_motion_ddot": 0,
        "tle_line1": "1 37331U 93036BKX 25335.06037159  .00002027  00000+0  70854-3 0  9994",
        "tle_line2": "2 37331  74.0748  89.2257 0055446 107.2854 253.4376 14.34963315845920"
      },
      "geometry": {
        "type": "Point",
        "coordinates": [
          51.43619322083637,
          -55.77069090029509
        ]
      }
    },
    {
      "type": "Feature",
      "properties": {
        "norad_id": 37336,
        "name": "COSMOS 2251 DEB",
        "group": "cosmos-2251-debris",
        "lat": -39.71421891309354,
        "lon": -34.16902331500836,
        "alt_km": 792.4773292687514,
        "timestamp": "2025-12-08T03:50:07.393727+00:00",
        "meta_object_name": "COSMOS 2251 DEB",
        "meta_object_id": "1993-036BLC",
        "meta_epoch": "2025-12-01T07:48:14.136768",
        "meta_mean_motion": 14.32750931,
        "meta_eccentricity": 0.00286304,
        "meta_inclination": 74.0414,
        "meta_ra_of_asc_node": 352.0528,
        "meta_arg_of_pericenter": 73.4193,
        "meta_mean_anomaly": 287.0099,
        "meta_ephemeris_type": 0,
        "meta_classification_type": "U",
        "meta_norad_cat_id": 37336,
        "meta_element_set_no": 999,
        "meta_rev_at_epoch": 64956,
        "meta_bstar": 8.422431e-05,
        "meta_mean_motion_dot": 2.05e-06,
        "meta_mean_motion_ddot": 0,
        "tle_line1": "1 37336U 93036BLC 25335.32516362  .00000205  00000+0  84224-4 0  9999",
        "tle_line2": "2 37336  74.0414 352.0528 0028630  73.4193 287.0099 14.32750931649565"
      },
      "geometry": {
        "type": "Point",
        "coordinates": [
          -34.16902331500836,
          -39.71421891309354
        ]
      }
    },
    {
      "type": "Feature",
      "properties": {
        "norad_id": 37340,
        "name": "COSMOS 2251 DEB",
        "group": "cosmos-2251-debris",
        "lat": 64.11378820181024,
        "lon": 69.40409154133384,
        "alt_km": 761.8242174305897,
        "timestamp": "2025-12-08T03:50:07.393737+00:00",
        "meta_object_name": "COSMOS 2251 DEB",
        "meta_object_id": "1993-036BLG",
        "meta_epoch": "2025-12-05T05:08:42.934848",
        "meta_mean_motion": 14.36908075,
        "meta_eccentricity": 0.00174259,
        "meta_inclination": 74.0249,
        "meta_ra_of_asc_node": 290.9993,
        "meta_arg_of_pericenter": 27.9023,
        "meta_mean_anomaly": 332.3061,
        "meta_ephemeris_type": 0,
        "meta_classification_type": "U",
        "meta_norad_cat_id": 37340,
        "meta_element_set_no": 999,
        "meta_rev_at_epoch": 83959,
        "meta_bstar": 0.00037521661,
        "meta_mean_motion_dot": 1.086e-05,
        "meta_mean_motion_ddot": 0,
        "tle_line1": "1 37340U 93036BLG 25339.21438582  .00001086  00000+0  37522-3 0  9999",
        "tle_line2": "2 37340  74.0249 290.9993 0017425  27.9023 332.3061 14.36908075839593"
      },
      "geometry": {
        "type": "Point",
        "coordinates": [
          69.40409154133384,
          64.11378820181024
        ]
      }
    },
    {
      "type": "Feature",
      "properties": {
        "norad_id": 37483,
        "name": "COSMOS 2251 DEB",
        "group": "cosmos-2251-debris",
        "lat": 60.75808568047683,
        "lon": -59.01329347036592,
        "alt_km": 768.3319328532571,
        "timestamp": "2025-12-08T03:50:07.393747+00:00",
        "meta_object_name": "COSMOS 2251 DEB",
        "meta_object_id": "1993-036BLL",
        "meta_epoch": "2025-12-06T21:22:19.313184",
        "meta_mean_motion": 14.43543029,
        "meta_eccentricity": 0.00928393,
        "meta_inclination": 73.9727,
        "meta_ra_of_asc_node": 154.2477,
        "meta_arg_of_pericenter": 2.0807,
        "meta_mean_anomaly": 358.0716,
        "meta_ephemeris_type": 0,
        "meta_classification_type": "U",
        "meta_norad_cat_id": 37483,
        "meta_element_set_no": 999,
        "meta_rev_at_epoch": 65195,
        "meta_bstar": 0.00034556267,
        "meta_mean_motion_dot": 1.204e-05,
        "meta_mean_motion_ddot": 0,
        "tle_line1": "1 37483U 93036BLL 25340.89050131  .00001204  00000+0  34556-3 0  9999",
        "tle_line2": "2 37483  73.9727 154.2477 0092839   2.0807 358.0716 14.43543029651951"
      },
      "geometry": {
        "type": "Point",
        "coordinates": [
          -59.01329347036592,
          60.75808568047683
        ]
      }
    }
  ]
}